{
  "type": "FeatureCollection",
  "features": [
    {
      "type": "Feature",
      "properties": {
        "norad_id": 44333,
        "name": "AT&T T-16",
        "group": "intelsat",
        "lat": 0.02542694868836566,
        "lon": 88.05557860966255,
        "alt_km": 35786.9003140186,
        "timestamp": "2025-12-05T07:38:18.516465+00:00",
        "meta_object_name": "AT&T T-16",
        "meta_object_id": "2019-034A",
        "meta_epoch": "2025-12-04T08:38:38.724288",
        "meta_mean_motion": 1.0026863,
        "meta_eccentricity": 3.23e-05,
        "meta_inclination": 0.0351,
        "meta_ra_of_asc_node": 77.2721,
        "meta_arg_of_pericenter": 97.2425,
        "meta_mean_anomaly": 287.7127,
        "meta_ephemeris_type": 0,
        "meta_classification_type": "U",
        "meta_norad_cat_id": 44333,
        "meta_element_set_no": 999,
        "meta_rev_at_epoch": 2368,
        "meta_bstar": 0,
        "meta_mean_motion_dot": -1e-06,
        "meta_mean_motion_ddot": 0,
        "tle_line1": "1 44333U 19034A   25338.36017042 -.00000100  00000+0  00000+0 0  9998",
        "tle_line2": "2 44333   0.0351  77.2721 0000323  97.2425 287.7127  1.00268630 23680"
      },
      "geometry": {
        "type": "Point",
        "coordinates": [
          88.05557860966255,
          0.02542694868836566
        ]
      }
    },
    {
      "type": "Feature",
      "properties": {
        "norad_id": 44476,
        "name": "INTELSAT 39 (IS-39)",
        "group": "intelsat",
        "lat": -0.04110057003183237,
        "lon": -109.10478251671178,
        "alt_km": 35786.59388037275,
        "timestamp": "2025-12-05T07:38:18.516477+00:00",
        "meta_object_name": "INTELSAT 39 (IS-39)",
        "meta_object_id": "2019-049B",
        "meta_epoch": "2025-12-04T14:01:17.914368",
        "meta_mean_motion": 1.00272424,
        "meta_eccentricity": 6.34e-05,
        "meta_inclination": 0.0165,
        "meta_ra_of_asc_node": 325.9133,
        "meta_arg_of_pericenter": 179.1355,
        "meta_mean_anomaly": 200.879,
        "meta_ephemeris_type": 0,
        "meta_classification_type": "U",
        "meta_norad_cat_id": 44476,
        "meta_element_set_no": 999,
        "meta_rev_at_epoch": 2317,
        "meta_bstar": 0,
        "meta_mean_motion_dot": 4.8e-07,
        "meta_mean_motion_ddot": 0,
        "tle_line1": "1 44476U 19049B   25338.58423512  .00000048  00000+0  00000+0 0  9999",
        "tle_line2": "2 44476   0.0165 325.9133 0000634 179.1355 200.8790  1.00272424 23170"
      },
      "geometry": {
        "type": "Point",
        "coordinates": [
          -109.10478251671178,
          -0.04110057003183237
        ]
      }
    },
    {
      "type": "Feature",
      "properties": {
        "norad_id": 46114,
        "name": "GALAXY 30 (G-30)",
        "group": "intelsat",
        "lat": 0.041611358925775534,
        "lon": 63.94210843578481,
        "alt_km": 35797.02857646802,
        "timestamp": "2025-12-05T07:38:18.516488+00:00",
        "meta_object_name": "GALAXY 30 (G-30)",
        "meta_object_id": "2020-056C",
        "meta_epoch": "2025-12-04T14:10:38.722944",
        "meta_mean_motion": 1.00270006,
        "meta_eccentricity": 0.0002489,
        "meta_inclination": 0.0158,
        "meta_ra_of_asc_node": 328.6937,
        "meta_arg_of_pericenter": 280.7734,
        "meta_mean_anomaly": 271.8612,
        "meta_ephemeris_type": 0,
        "meta_classification_type": "U",
        "meta_norad_cat_id": 46114,
        "meta_element_set_no": 999,
        "meta_rev_at_epoch": 1934,
        "meta_bstar": 0,
        "meta_mean_motion_dot": 5.1e-07,
        "meta_mean_motion_ddot": 0,
        "tle_line1": "1 46114U 20056C   25338.59072596  .00000051  00000+0  00000+0 0  9997",
        "tle_line2": "2 46114   0.0158 328.6937 0002489 280.7734 271.8612  1.00270006 19344"
      },
      "geometry": {
        "type": "Point",
        "coordinates": [
          63.94210843578481,
          0.041611358925775534
        ]
      }
    },
    {
      "type": "Feature",
      "properties": {
        "norad_id": 54026,
        "name": "GALAXY 33 (G-33)",
        "group": "intelsat",
        "lat": 0.03406029715752502,
        "lon": 55.96659112323101,
        "alt_km": 35793.92159171022,
        "timestamp": "2025-12-05T07:38:18.516499+00:00",
        "meta_object_name": "GALAXY 33 (G-33)",
        "meta_object_id": "2022-128A",
        "meta_epoch": "2025-12-04T04:32:00.541824",
        "meta_mean_motion": 1.00272957,
        "meta_eccentricity": 0.0002014,
        "meta_inclination": 0.0134,
        "meta_ra_of_asc_node": 359.762,
        "meta_arg_of_pericenter": 250.375,
        "meta_mean_anomaly": 118.1476,
        "meta_ephemeris_type": 0,
        "meta_classification_type": "U",
        "meta_norad_cat_id": 54026,
        "meta_element_set_no": 999,
        "meta_rev_at_epoch": 1178,
        "meta_bstar": 0,
        "meta_mean_motion_dot": 9.5e-07,
        "meta_mean_motion_ddot": 0,
        "tle_line1": "1 54026U 22128A   25338.18889516  .00000095  00000+0  00000+0 0  9991",
        "tle_line2": "2 54026   0.0134 359.7620 0002014 250.3750 118.1476  1.00272957 11786"
      },
      "geometry": {
        "type": "Point",
        "coordinates": [
          55.96659112323101,
          0.03406029715752502
        ]
      }
    },
    {
      "type": "Feature",
      "properties": {
        "norad_id": 54027,
        "name": "GALAXY 34 (G-34)",
        "group": "intelsat",
        "lat": 0.048269566083352096,
        "lon": 59.99438599130724,
        "alt_km": 35792.07627070125,
        "timestamp": "2025-12-05T07:38:18.516511+00:00",
        "meta_object_name": "GALAXY 34 (G-34)",
        "meta_object_id": "2022-128B",
        "meta_epoch": "2025-12-04T14:10:38.722944",
        "meta_mean_motion": 1.00269584,
        "meta_eccentricity": 0.0001285,
        "meta_inclination": 0.0223,
        "meta_ra_of_asc_node": 328.1402,
        "meta_arg_of_pericenter": 274.2387,
        "meta_mean_anomaly": 275.0049,
        "meta_ephemeris_type": 0,
        "meta_classification_type": "U",
        "meta_norad_cat_id": 54027,
        "meta_element_set_no": 999,
        "meta_rev_at_epoch": 1196,
        "meta_bstar": 0,
        "meta_mean_motion_dot": 0,
        "meta_mean_motion_ddot": 0,
        "tle_line1": "1 54027U 22128B   25338.59072596  .00000000  00000+0  00000+0 0  9995",
        "tle_line2": "2 54027   0.0223 328.1402 0001285 274.2387 275.0049  1.00269584 11965"
      },
      "geometry": {
        "type": "Point",
        "coordinates": [
          59.99438599130724,
          0.048269566083352096
        ]
      }
    },
    {
      "type": "Feature",
      "properties": {
        "norad_id": 54243,
        "name": "GALAXY 31 (G-31)",
        "group": "intelsat",
        "lat": 0.02641330902505043,
        "lon": 67.94621958549183,
        "alt_km": 35794.456702493815,
        "timestamp": "2025-12-05T07:38:18.516523+00:00",
        "meta_object_name": "GALAXY 31 (G-31)",
        "meta_object_id": "2022-153A",
        "meta_epoch": "2025-12-04T14:02:38.764032",
        "meta_mean_motion": 1.00270474,
        "meta_eccentricity": 0.0002012,
        "meta_inclination": 0.0155,
        "meta_ra_of_asc_node": 30.9903,
        "meta_arg_of_pericenter": 236.2733,
        "meta_mean_anomaly": 256.0574,
        "meta_ephemeris_type": 0,
        "meta_classification_type": "U",
        "meta_norad_cat_id": 54243,
        "meta_element_set_no": 999,
        "meta_rev_at_epoch": 518,
        "meta_bstar": 0,
        "meta_mean_motion_dot": 2.8e-07,
        "meta_mean_motion_ddot": 0,
        "tle_line1": "1 54243U 22153A   25338.58517088  .00000028  00000+0  00000+0 0  9992",
        "tle_line2": "2 54243   0.0155  30.9903 0002012 236.2733 256.0574  1.00270474  5184"
      },
      "geometry": {
        "type": "Point",
        "coordinates": [
          67.94621958549183,
          0.02641330902505043
        ]
      }
    },
    {
      "type": "Feature",
      "properties": {
        "norad_id": 54244,
        "name": "GALAXY 32 (G-32)",
        "group": "intelsat",
        "lat": 0.029325098802393285,
        "lon": 97.9739485932162,
        "alt_km": 35795.28605889306,
        "timestamp": "2025-12-05T07:38:18.516535+00:00",
        "meta_object_name": "GALAXY 32 (G-32)",
        "meta_object_id": "2022-153B",
        "meta_epoch": "2025-12-04T06:26:43.018944",
        "meta_mean_motion": 1.00276972,
        "meta_eccentricity": 0.0002645,
        "meta_inclination": 0.0105,
        "meta_ra_of_asc_node": 335.682,
        "meta_arg_of_pericenter": 320.5461,
        "meta_mean_anomaly": 142.802,
        "meta_ephemeris_type": 0,
        "meta_classification_type": "U",
        "meta_norad_cat_id": 54244,
        "meta_element_set_no": 999,
        "meta_rev_at_epoch": 1119,
        "meta_bstar": 0,
        "meta_mean_motion_dot": -1.59e-06,
        "meta_mean_motion_ddot": 0,
        "tle_line1": "1 54244U 22153B   25338.26855346 -.00000159  00000+0  00000+0 0  9996",
        "tle_line2": "2 54244   0.0105 335.6820 0002645 320.5461 142.8020  1.00276972 11195"
      },
      "geometry": {
        "type": "Point",
        "coordinates": [
          97.9739485932162,
          0.029325098802393285
        ]
      }
    }
  ]
}